LYNK TOWER 4            
1 55034U 23001AB  26068.67743801  .00009160  00000+0  30014-3 0  9997
2 55034  97.3324 128.5940 0010321 112.3386 247.8950 15.31819885176588
STARLINK-36414          
1 67468U 26008Z   26068.41599435  .00038049  00000+0  13841-2 0  9991
2 67468  42.9999 206.4690 0003318 287.4655  72.5833 15.27598994  9538
